{
  "type": "FeatureCollection",
  "features": [
    {
      "type": "Feature",
      "properties": {
        "norad_id": 40938,
        "name": "BEIDOU-3S IGSO-2S (C56)",
        "group": "gnss",
        "lat": 21.68685453905759,
        "lon": 61.16070744292825,
        "alt_km": 35580.69782839236,
        "timestamp": "2025-12-13T15:35:12.349769+00:00",
        "meta_object_name": "BEIDOU-3S IGSO-2S (C56)",
        "meta_object_id": "2015-053A",
        "meta_epoch": "2025-12-12T17:40:22.230624",
        "meta_mean_motion": 1.00269795,
        "meta_eccentricity": 0.00608697,
        "meta_inclination": 49.5105,
        "meta_ra_of_asc_node": 261.0048,
        "meta_arg_of_pericenter": 188.8005,
        "meta_mean_anomaly": 352.9764,
        "meta_ephemeris_type": 0,
        "meta_classification_type": "U",
        "meta_norad_cat_id": 40938,
        "meta_element_set_no": 999,
        "meta_rev_at_epoch": 3748,
        "meta_bstar": 0,
        "meta_mean_motion_dot": -1.58e-06,
        "meta_mean_motion_ddot": 0,
        "tle_line1": "1 40938U 15053A   25346.73636841 -.00000158  00000+0  00000+0 0  9999",
        "tle_line2": "2 40938  49.5105 261.0048 0060869 188.8005 352.9764  1.00269795 37487"
      },
      "geometry": {
        "type": "Point",
        "coordinates": [
          61.16070744292825,
          21.68685453905759
        ]
      }
    },
    {
      "type": "Feature",
      "properties": {
        "norad_id": 41019,
        "name": "GPS BIIF-11 (PRN 10)",
        "group": "gnss",
        "lat": -49.66678626568165,
        "lon": -91.70078091420693,
        "alt_km": 19903.33644798461,
        "timestamp": "2025-12-13T15:35:12.349781+00:00",
        "meta_object_name": "GPS BIIF-11 (PRN 10)",
        "meta_object_id": "2015-062A",
        "meta_epoch": "2025-12-11T07:32:26.435904",
        "meta_mean_motion": 2.00567124,
        "meta_eccentricity": 0.01107874,
        "meta_inclination": 56.8311,
        "meta_ra_of_asc_node": 38.0574,
        "meta_arg_of_pericenter": 229.9047,
        "meta_mean_anomaly": 129.1688,
        "meta_ephemeris_type": 0,
        "meta_classification_type": "U",
        "meta_norad_cat_id": 41019,
        "meta_element_set_no": 999,
        "meta_rev_at_epoch": 7406,
        "meta_bstar": 0,
        "meta_mean_motion_dot": -9.3e-07,
        "meta_mean_motion_ddot": 0,
        "tle_line1": "1 41019U 15062A   25345.31419486 -.00000093  00000+0  00000+0 0  9995",
        "tle_line2": "2 41019  56.8311  38.0574 0110787 229.9047 129.1688  2.00567124 74064"
      },
      "geometry": {
        "type": "Point",
        "coordinates": [
          -91.70078091420693,
          -49.66678626568165
        ]
      }
    },
    {
      "type": "Feature",
      "properties": {
        "norad_id": 41028,
        "name": "GSAT-15 (GAGAN/PRN 139)",
        "group": "gnss",
        "lat": 0.0411420946354832,
        "lon": 49.872984257198986,
        "alt_km": 35798.284595214325,
        "timestamp": "2025-12-13T15:35:12.349792+00:00",
        "meta_object_name": "GSAT-15 (GAGAN/PRN 139)",
        "meta_object_id": "2015-065A",
        "meta_epoch": "2025-12-12T22:29:09.512160",
        "meta_mean_motion": 1.00271943,
        "meta_eccentricity": 0.00028824,
        "meta_inclination": 0.045,
        "meta_ra_of_asc_node": 266.1807,
        "meta_arg_of_pericenter": 323.0615,
        "meta_mean_anomaly": 283.4247,
        "meta_ephemeris_type": 0,
        "meta_classification_type": "U",
        "meta_norad_cat_id": 41028,
        "meta_element_set_no": 999,
        "meta_rev_at_epoch": 3693,
        "meta_bstar": 0,
        "meta_mean_motion_dot": -2.45e-06,
        "meta_mean_motion_ddot": 0,
        "tle_line1": "1 41028U 15065A   25346.93691565 -.00000245  00000+0  00000+0 0  9996",
        "tle_line2": "2 41028   0.0450 266.1807 0002882 323.0615 283.4247  1.00271943 36934"
      },
      "geometry": {
        "type": "Point",
        "coordinates": [
          49.872984257198986,
          0.0411420946354832
        ]
      }
    },
    {
      "type": "Feature",
      "properties": {
        "norad_id": 41174,
        "name": "GSAT0209 (GALILEO 12)",
        "group": "gnss",
        "lat": -14.567398206121375,
        "lon": 96.14036544437087,
        "alt_km": 23217.1957069358,
        "timestamp": "2025-12-13T15:35:12.349803+00:00",
        "meta_object_name": "GSAT0209 (GALILEO 12)",
        "meta_object_id": "2015-079A",
        "meta_epoch": "2025-12-10T17:53:22.611840",
        "meta_mean_motion": 1.70474458,
        "meta_eccentricity": 0.00024095,
        "meta_inclination": 55.7117,
        "meta_ra_of_asc_node": 106.4357,
        "meta_arg_of_pericenter": 351.4479,
        "meta_mean_anomaly": 8.5179,
        "meta_ephemeris_type": 0,
        "meta_classification_type": "U",
        "meta_norad_cat_id": 41174,
        "meta_element_set_no": 999,
        "meta_rev_at_epoch": 6156,
        "meta_bstar": 0,
        "meta_mean_motion_dot": 1.1e-07,
        "meta_mean_motion_ddot": 0,
        "tle_line1": "1 41174U 15079A   25344.74540060  .00000011  00000+0  00000+0 0  9993",
        "tle_line2": "2 41174  55.7117 106.4357 0002409 351.4479   8.5179  1.70474458 61567"
      },
      "geometry": {
        "type": "Point",
        "coordinates": [
          96.14036544437087,
          -14.567398206121375
        ]
      }
    },
    {
      "type": "Feature",
      "properties": {
        "norad_id": 41175,
        "name": "GSAT0208 (GALILEO 11)",
        "group": "gnss",
        "lat": -22.191951281214248,
        "lon": -57.51318583961515,
        "alt_km": 23230.022302756563,
        "timestamp": "2025-12-13T15:35:12.349819+00:00",
        "meta_object_name": "GSAT0208 (GALILEO 11)",
        "meta_object_id": "2015-079B",
        "meta_epoch": "2025-12-12T17:24:26.771040",
        "meta_mean_motion": 1.70474307,
        "meta_eccentricity": 0.00018806,
        "meta_inclination": 55.7111,
        "meta_ra_of_asc_node": 106.3784,
        "meta_arg_of_pericenter": 358.3144,
        "meta_mean_anomaly": 1.6545,
        "meta_ephemeris_type": 0,
        "meta_classification_type": "U",
        "meta_norad_cat_id": 41175,
        "meta_element_set_no": 999,
        "meta_rev_at_epoch": 6201,
        "meta_bstar": 0,
        "meta_mean_motion_dot": 4e-08,
        "meta_mean_motion_ddot": 0,
        "tle_line1": "1 41175U 15079B   25346.72530985  .00000004  00000+0  00000+0 0  9991",
        "tle_line2": "2 41175  55.7111 106.3784 0001880 358.3144   1.6545  1.70474307 62017"
      },
      "geometry": {
        "type": "Point",
        "coordinates": [
          -57.51318583961515,
          -22.191951281214248
        ]
      }
    },
    {
      "type": "Feature",
      "properties": {
        "norad_id": 41241,
        "name": "IRNSS-1E",
        "group": "gnss",
        "lat": 3.115813145528868,
        "lon": 67.27469856135359,
        "alt_km": 35877.705256557,
        "timestamp": "2025-12-13T15:35:12.349841+00:00",
        "meta_object_name": "IRNSS-1E",
        "meta_object_id": "2016-003A",
        "meta_epoch": "2025-12-12T20:06:57.569184",
        "meta_mean_motion": 1.00273817,
        "meta_eccentricity": 0.00218004,
        "meta_inclination": 32.8255,
        "meta_ra_of_asc_node": 62.4521,
        "meta_arg_of_pericenter": 187.6915,
        "meta_mean_anomaly": 245.1684,
        "meta_ephemeris_type": 0,
        "meta_classification_type": "U",
        "meta_norad_cat_id": 41241,
        "meta_element_set_no": 999,
        "meta_rev_at_epoch": 3621,
        "meta_bstar": 0,
        "meta_mean_motion_dot": -3.05e-06,
        "meta_mean_motion_ddot": 0,
        "tle_line1": "1 41241U 16003A   25346.83816631 -.00000305  00000+0  00000+0 0  9995",
        "tle_line2": "2 41241  32.8255  62.4521 0021800 187.6915 245.1684  1.00273817 36218"
      },
      "geometry": {
        "type": "Point",
        "coordinates": [
          67.27469856135359,
          3.115813145528868
        ]
      }
    },
    {
      "type": "Feature",
      "properties": {
        "norad_id": 41328,
        "name": "GPS BIIF-12 (PRN 32)",
        "group": "gnss",
        "lat": -3.9510809171818146,
        "lon": -80.45710441094623,
        "alt_km": 20054.880111017537,
        "timestamp": "2025-12-13T15:35:12.349855+00:00",
        "meta_object_name": "GPS BIIF-12 (PRN 32)",
        "meta_object_id": "2016-007A",
        "meta_epoch": "2025-12-10T21:33:15.579936",
        "meta_mean_motion": 2.00560768,
        "meta_eccentricity": 0.0092092,
        "meta_inclination": 55.4051,
        "meta_ra_of_asc_node": 96.9301,
        "meta_arg_of_pericenter": 243.5329,
        "meta_mean_anomaly": 115.5097,
        "meta_ephemeris_type": 0,
        "meta_classification_type": "U",
        "meta_norad_cat_id": 41328,
        "meta_element_set_no": 999,
        "meta_rev_at_epoch": 7206,
        "meta_bstar": 0,
        "meta_mean_motion_dot": 1e-08,
        "meta_mean_motion_ddot": 0,
        "tle_line1": "1 41328U 16007A   25344.89809699  .00000001  00000+0  00000+0 0  9997",
        "tle_line2": "2 41328  55.4051  96.9301 0092092 243.5329 115.5097  2.00560768 72065"
      },
      "geometry": {
        "type": "Point",
        "coordinates": [
          -80.45710441094623,
          -3.9510809171818146
        ]
      }
    }
  ]
}